start=new Date('2022-11-26T00:00:00.000Z').valueOf();
sats=[{"OBJECT_TYPE":"PAYLOAD","EPOCH":"2022-11-25T16:02:10.902336","SITE":"AFETR","EPHEMERIS_TYPE":"0","OBJECT_ID":"2020-001W","ARG_OF_PERICENTER":"74.1777","CLASSIFICATION_TYPE":"U","CENTER_NAME":"EARTH","TIME_SYSTEM":"UTC","REV_AT_EPOCH":"15925","RCS_SIZE":"LARGE","REF_FRAME":"TEME","MEAN_MOTION_DDOT":"0.0000000000000","OBJECT_NAME":"STARLINK-1071","PERIOD":"95.593","LAUNCH_DATE":"2020-01-07","MEAN_MOTION_DOT":"0.00001678","MEAN_MOTION":"15.06388228","MEAN_ANOMALY":"285.9396","NORAD_CAT_ID":"44934","INCLINATION":"53.0559","PERIAPSIS":"546.092","ECCENTRICITY":"0.00016710","DECAY_DATE":null,"GP_ID":"218816776","APOAPSIS":"548.407","SEMIMAJOR_AXIS":"6925.385","FILE":"3670141","MEAN_ELEMENT_THEORY":"SGP4","BSTAR":"0.00013155000000","RA_OF_ASC_NODE":"313.7369","COUNTRY_CODE":"US","TLE_LINE2":"2 44934  53.0559 313.7369 0001671  74.1777 285.9396 15.06388228159250","ELEMENT_SET_NO":"999","TLE_LINE1":"1 44934U 20001W   22329.66818174  .00001678  00000-0  13155-3 0  9996"},{"ECCENTRICITY":"0.00014570","PERIAPSIS":"546.218","GP_ID":"218759080","DECAY_DATE":null,"MEAN_MOTION":"15.06395593","NORAD_CAT_ID":"44937","INCLINATION":"53.0550","MEAN_ANOMALY":"295.2368","RA_OF_ASC_NODE":"314.7317","BSTAR":"0.00013848000000","FILE":"3669850","MEAN_ELEMENT_THEORY":"SGP4","TLE_LINE1":"1 44937U 20001Z   22329.44700629  .00001782  00000-0  13848-3 0  9995","TLE_LINE2":"2 44937  53.0550 314.7317 0001457  64.8772 295.2368 15.06395593159224","ELEMENT_SET_NO":"999","COUNTRY_CODE":"US","SEMIMAJOR_AXIS":"6925.362","APOAPSIS":"548.236","CENTER_NAME":"EARTH","EPOCH":"2022-11-25T10:43:41.343456","OBJECT_TYPE":"PAYLOAD","CLASSIFICATION_TYPE":"U","ARG_OF_PERICENTER":"64.8772","OBJECT_ID":"2020-001Z","SITE":"AFETR","EPHEMERIS_TYPE":"0","MEAN_MOTION_DDOT":"0.0000000000000","OBJECT_NAME":"STARLINK-1079","REF_FRAME":"TEME","MEAN_MOTION_DOT":"0.00001782","LAUNCH_DATE":"2020-01-07","PERIOD":"95.592","REV_AT_EPOCH":"15922","TIME_SYSTEM":"UTC","RCS_SIZE":"LARGE"},{"EPHEMERIS_TYPE":"0","SITE":"AFETR","OBJECT_ID":"2020-001AA","ARG_OF_PERICENTER":"58.2817","CLASSIFICATION_TYPE":"U","OBJECT_TYPE":"PAYLOAD","EPOCH":"2022-11-25T16:18:05.078880","CENTER_NAME":"EARTH","RCS_SIZE":"LARGE","TIME_SYSTEM":"UTC","REV_AT_EPOCH":"15925","PERIOD":"95.593","MEAN_MOTION_DOT":"0.00001673","LAUNCH_DATE":"2020-01-07","REF_FRAME":"TEME","OBJECT_NAME":"STARLINK-1082","MEAN_MOTION_DDOT":"0.0000000000000","MEAN_ANOMALY":"301.8348","NORAD_CAT_ID":"44938","INCLINATION":"53.0551","MEAN_MOTION":"15.06391933","DECAY_DATE":null,"GP_ID":"218817769","PERIAPSIS":"545.988","ECCENTRICITY":"0.00018060","APOAPSIS":"548.489","SEMIMAJOR_AXIS":"6925.373","COUNTRY_CODE":"US","TLE_LINE2":"2 44938  53.0551 313.6803 0001806  58.2817 301.8348 15.06391933159258","ELEMENT_SET_NO":"999","TLE_LINE1":"1 44938U 20001AA  22329.67922545  .00001673  00000-0  13123-3 0  9999","MEAN_ELEMENT_THEORY":"SGP4","FILE":"3670141","BSTAR":"0.00013123000000","RA_OF_ASC_NODE":"313.6803"},{"RCS_SIZE":"LARGE","TIME_SYSTEM":"UTC","REV_AT_EPOCH":"15925","PERIOD":"95.591","LAUNCH_DATE":"2020-01-07","MEAN_MOTION_DOT":"0.00004501","REF_FRAME":"TEME","MEAN_MOTION_DDOT":"0.0000000000000","OBJECT_NAME":"STARLINK-1083","SITE":"AFETR","EPHEMERIS_TYPE":"0","OBJECT_ID":"2020-001AB","ARG_OF_PERICENTER":"64.2724","CLASSIFICATION_TYPE":"U","OBJECT_TYPE":"PAYLOAD","EPOCH":"2022-11-25T16:28:41.024352","CENTER_NAME":"EARTH","APOAPSIS":"548.347","SEMIMAJOR_AXIS":"6925.306","COUNTRY_CODE":"US","ELEMENT_SET_NO":"999","TLE_LINE2":"2 44939  53.0549 313.6497 0001698  64.2724 295.8440 15.06413788159256","TLE_LINE1":"1 44939U 20001AB  22329.68658593  .00004501  00000-0  32074-3 0  9999","MEAN_ELEMENT_THEORY":"SGP4","FILE":"3670141","RA_OF_ASC_NODE":"313.6497","BSTAR":"0.00032074000000","MEAN_ANOMALY":"295.8440","NORAD_CAT_ID":"44939","INCLINATION":"53.0549","MEAN_MOTION":"15.06413788","DECAY_DATE":null,"GP_ID":"218818017","PERIAPSIS":"545.995","ECCENTRICITY":"0.00016980"},{"CENTER_NAME":"EARTH","ARG_OF_PERICENTER":"48.7362","CLASSIFICATION_TYPE":"U","EPHEMERIS_TYPE":"0","SITE":"AFETR","OBJECT_ID":"2020-001AC","OBJECT_TYPE":"PAYLOAD","EPOCH":"2022-11-25T16:44:37.057632","MEAN_MOTION_DOT":"0.00001266","LAUNCH_DATE":"2020-01-07","PERIOD":"95.592","MEAN_MOTION_DDOT":"0.0000000000000","OBJECT_NAME":"STARLINK-1091","REF_FRAME":"TEME","RCS_SIZE":"LARGE","REV_AT_EPOCH":"15925","TIME_SYSTEM":"UTC","DECAY_DATE":null,"GP_ID":"218817276","ECCENTRICITY":"0.00019540","PERIAPSIS":"545.870","NORAD_CAT_ID":"44940","INCLINATION":"53.0555","MEAN_ANOMALY":"311.3795","MEAN_MOTION":"15.06396918","ELEMENT_SET_NO":"999","TLE_LINE2":"2 44940  53.0555 313.5984 0001954  48.7362 311.3795 15.06396918159257","TLE_LINE1":"1 44940U 20001AC  22329.69765113  .00001266  00000-0  10387-3 0  9997","COUNTRY_CODE":"US","BSTAR":"0.00010387000000","RA_OF_ASC_NODE":"313.5984","MEAN_ELEMENT_THEORY":"SGP4","FILE":"3670141","SEMIMAJOR_AXIS":"6925.358","APOAPSIS":"548.576"},{"MEAN_MOTION":"15.06398916","MEAN_ANOMALY":"300.9603","NORAD_CAT_ID":"44941","INCLINATION":"53.0552","PERIAPSIS":"546.018","ECCENTRICITY":"0.00017310","GP_ID":"218817526","DECAY_DATE":null,"APOAPSIS":"548.416","SEMIMAJOR_AXIS":"6925.352","MEAN_ELEMENT_THEORY":"SGP4","FILE":"3670141","RA_OF_ASC_NODE":"313.7995","BSTAR":"0.00005603200000","COUNTRY_CODE":"US","ELEMENT_SET_NO":"999","TLE_LINE2":"2 44941  53.0552 313.7995 0001731  59.1556 300.9603 15.06398916159255","TLE_LINE1":"1 44941U 20001AD  22329.65340716  .00000553  00000-0  56032-4 0  9998","EPOCH":"2022-11-25T15:40:54.378624","OBJECT_TYPE":"PAYLOAD","OBJECT_ID":"2020-001AD","SITE":"AFETR","EPHEMERIS_TYPE":"0","CLASSIFICATION_TYPE":"U","ARG_OF_PERICENTER":"59.1556","CENTER_NAME":"EARTH","TIME_SYSTEM":"UTC","REV_AT_EPOCH":"15925","RCS_SIZE":"LARGE","REF_FRAME":"TEME","OBJECT_NAME":"STARLINK-1094","MEAN_MOTION_DDOT":"0.0000000000000","PERIOD":"95.592","LAUNCH_DATE":"2020-01-07","MEAN_MOTION_DOT":"0.00000553"},{"SEMIMAJOR_AXIS":"6907.845","APOAPSIS":"531.762","BSTAR":"0.00078645000000","RA_OF_ASC_NODE":"311.5387","MEAN_ELEMENT_THEORY":"SGP4","FILE":"3669850","TLE_LINE2":"2 44942  53.0554 311.5387 0002971  55.3328 304.7943 15.12129266159268","ELEMENT_SET_NO":"999","TLE_LINE1":"1 44942U 20001AE  22329.36706408  .00013437  00000-0  78645-3 0  9999","COUNTRY_CODE":"US","MEAN_MOTION":"15.12129266","NORAD_CAT_ID":"44942","INCLINATION":"53.0554","MEAN_ANOMALY":"304.7943","ECCENTRICITY":"0.00029710","PERIAPSIS":"527.657","GP_ID":"218759331","DECAY_DATE":null,"REV_AT_EPOCH":"15926","TIME_SYSTEM":"UTC","RCS_SIZE":"LARGE","MEAN_MOTION_DDOT":"0.0000000000000","OBJECT_NAME":"STARLINK-1096","REF_FRAME":"TEME","LAUNCH_DATE":"2020-01-07","MEAN_MOTION_DOT":"0.00013437","PERIOD":"95.230","EPOCH":"2022-11-25T08:48:34.336512","OBJECT_TYPE":"PAYLOAD","CLASSIFICATION_TYPE":"U","ARG_OF_PERICENTER":"55.3328","OBJECT_ID":"2020-001AE","SITE":"AFETR","EPHEMERIS_TYPE":"0","CENTER_NAME":"EARTH"},{"SEMIMAJOR_AXIS":"6925.336","APOAPSIS":"548.357","BSTAR":"0.00016105000000","RA_OF_ASC_NODE":"313.6734","FILE":"3670141","MEAN_ELEMENT_THEORY":"SGP4","ELEMENT_SET_NO":"999","TLE_LINE2":"2 44943  53.0548 313.6734 0001670  53.3716 306.7426 15.06404201159250","TLE_LINE1":"1 44943U 20001AF  22329.68289794  .00002118  00000-0  16105-3 0  9996","COUNTRY_CODE":"US","MEAN_MOTION":"15.06404201","INCLINATION":"53.0548","NORAD_CAT_ID":"44943","MEAN_ANOMALY":"306.7426","ECCENTRICITY":"0.00016700","PERIAPSIS":"546.044","GP_ID":"218818517","DECAY_DATE":null,"REV_AT_EPOCH":"15925","TIME_SYSTEM":"UTC","RCS_SIZE":"LARGE","OBJECT_NAME":"STARLINK-1100","MEAN_MOTION_DDOT":"0.0000000000000","REF_FRAME":"TEME","MEAN_MOTION_DOT":"0.00002118","LAUNCH_DATE":"2020-01-07","PERIOD":"95.592","EPOCH":"2022-11-25T16:23:22.382016","OBJECT_TYPE":"PAYLOAD","CLASSIFICATION_TYPE":"U","ARG_OF_PERICENTER":"53.3716","OBJECT_ID":"2020-001AF","SITE":"AFETR","EPHEMERIS_TYPE":"0","CENTER_NAME":"EARTH"},{"MEAN_ANOMALY":"307.7382","NORAD_CAT_ID":"44944","INCLINATION":"53.0549","MEAN_MOTION":"15.06388221","GP_ID":"218816777","DECAY_DATE":null,"PERIAPSIS":"546.056","ECCENTRICITY":"0.00017230","APOAPSIS":"548.443","SEMIMAJOR_AXIS":"6925.385","COUNTRY_CODE":"US","TLE_LINE2":"2 44944  53.0549 313.7472 0001723  52.3763 307.7382 15.06388221159257","ELEMENT_SET_NO":"999","TLE_LINE1":"1 44944U 20001AG  22329.66448244 -.00000174  00000-0  72492-5 0  9996","FILE":"3670141","MEAN_ELEMENT_THEORY":"SGP4","BSTAR":"0.00000724920000","RA_OF_ASC_NODE":"313.7472","OBJECT_ID":"2020-001AG","EPHEMERIS_TYPE":"0","SITE":"AFETR","CLASSIFICATION_TYPE":"U","ARG_OF_PERICENTER":"52.3763","EPOCH":"2022-11-25T15:56:51.282816","OBJECT_TYPE":"PAYLOAD","CENTER_NAME":"EARTH","RCS_SIZE":"LARGE","TIME_SYSTEM":"UTC","REV_AT_EPOCH":"15925","PERIOD":"95.593","LAUNCH_DATE":"2020-01-07","MEAN_MOTION_DOT":"-0.00000174","REF_FRAME":"TEME","OBJECT_NAME":"STARLINK-1108","MEAN_MOTION_DDOT":"0.0000000000000"},{"BSTAR":"0.00017410000000","RA_OF_ASC_NODE":"313.6145","FILE":"3670141","MEAN_ELEMENT_THEORY":"SGP4","TLE_LINE1":"1 44945U 20001AH  22329.69395456  .00002313  00000-0  17410-3 0  9999","TLE_LINE2":"2 44945  53.0565 313.6145 0001671  62.3171 297.7987 15.06409292159259","ELEMENT_SET_NO":"999","COUNTRY_CODE":"US","SEMIMAJOR_AXIS":"6925.320","APOAPSIS":"548.342","ECCENTRICITY":"0.00016710","PERIAPSIS":"546.028","DECAY_DATE":null,"GP_ID":"218817027","MEAN_MOTION":"15.06409292","NORAD_CAT_ID":"44945","INCLINATION":"53.0565","MEAN_ANOMALY":"297.7987","OBJECT_NAME":"STARLINK-1109","MEAN_MOTION_DDOT":"0.0000000000000","REF_FRAME":"TEME","LAUNCH_DATE":"2020-01-07","MEAN_MOTION_DOT":"0.00002313","PERIOD":"95.592","REV_AT_EPOCH":"15925","TIME_SYSTEM":"UTC","RCS_SIZE":"LARGE","CENTER_NAME":"EARTH","OBJECT_TYPE":"PAYLOAD","EPOCH":"2022-11-25T16:39:17.673984","ARG_OF_PERICENTER":"62.3171","CLASSIFICATION_TYPE":"U","EPHEMERIS_TYPE":"0","SITE":"AFETR","OBJECT_ID":"2020-001AH"}];
